{
  "type": "FeatureCollection",
  "features": [
    {
      "type": "Feature",
      "properties": {
        "norad_id": 44334,
        "name": "EUTELSAT 7C",
        "group": "eutelsat",
        "lat": -0.013698713569431035,
        "lon": 19.498508067712827,
        "alt_km": 35794.06549124872,
        "timestamp": "2025-12-20T18:51:31.389263+00:00",
        "meta_object_name": "EUTELSAT 7C",
        "meta_object_id": "2019-034B",
        "meta_epoch": "2025-12-20T06:24:55.272960",
        "meta_mean_motion": 1.00270763,
        "meta_eccentricity": 0.00030526,
        "meta_inclination": 0.0729,
        "meta_ra_of_asc_node": 179.1336,
        "meta_arg_of_pericenter": 73.4447,
        "meta_mean_anomaly": 299.7414,
        "meta_ephemeris_type": 0,
        "meta_classification_type": "U",
        "meta_norad_cat_id": 44334,
        "meta_element_set_no": 999,
        "meta_rev_at_epoch": 504,
        "meta_bstar": 0,
        "meta_mean_motion_dot": 7.2e-07,
        "meta_mean_motion_ddot": 0,
        "tle_line1": "1 44334U 19034B   25354.26730640  .00000072  00000+0  00000+0 0  9999",
        "tle_line2": "2 44334   0.0729 179.1336 0003052  73.4447 299.7414  1.00270763  5048"
      },
      "geometry": {
        "type": "Point",
        "coordinates": [
          19.498508067712827,
          -0.013698713569431035
        ]
      }
    },
    {
      "type": "Feature",
      "properties": {
        "norad_id": 44624,
        "name": "EUTELSAT 5 WEST B",
        "group": "eutelsat",
        "lat": 0.04300858224926049,
        "lon": 7.525510672227804,
        "alt_km": 35788.031698659186,
        "timestamp": "2025-12-20T18:51:31.389274+00:00",
        "meta_object_name": "EUTELSAT 5 WEST B",
        "meta_object_id": "2019-067A",
        "meta_epoch": "2025-12-20T06:21:33.095232",
        "meta_mean_motion": 1.00271304,
        "meta_eccentricity": 0.00029967,
        "meta_inclination": 0.0675,
        "meta_ra_of_asc_node": 334.6268,
        "meta_arg_of_pericenter": 294.5893,
        "meta_mean_anomaly": 270.2794,
        "meta_ephemeris_type": 0,
        "meta_classification_type": "U",
        "meta_norad_cat_id": 44624,
        "meta_element_set_no": 999,
        "meta_rev_at_epoch": 2264,
        "meta_bstar": 0,
        "meta_mean_motion_dot": -1.8e-07,
        "meta_mean_motion_ddot": 0,
        "tle_line1": "1 44624U 19067A   25354.26496638 -.00000018  00000+0  00000+0 0  9994",
        "tle_line2": "2 44624   0.0675 334.6268 0002996 294.5893 270.2794  1.00271304 22641"
      },
      "geometry": {
        "type": "Point",
        "coordinates": [
          7.525510672227804,
          0.04300858224926049
        ]
      }
    },
    {
      "type": "Feature",
      "properties": {
        "norad_id": 45027,
        "name": "EUTELSAT KONNECT",
        "group": "eutelsat",
        "lat": -0.055332577137313016,
        "lon": 19.700127802886193,
        "alt_km": 35786.89912458442,
        "timestamp": "2025-12-20T18:51:31.389286+00:00",
        "meta_object_name": "EUTELSAT KONNECT",
        "meta_object_id": "2020-005B",
        "meta_epoch": "2025-12-20T06:25:02.761248",
        "meta_mean_motion": 1.00269751,
        "meta_eccentricity": 0.00013058,
        "meta_inclination": 0.0718,
        "meta_ra_of_asc_node": 94.8547,
        "meta_arg_of_pericenter": 192.1408,
        "meta_mean_anomaly": 265.5721,
        "meta_ephemeris_type": 0,
        "meta_classification_type": "U",
        "meta_norad_cat_id": 45027,
        "meta_element_set_no": 999,
        "meta_rev_at_epoch": 2254,
        "meta_bstar": 0,
        "meta_mean_motion_dot": 7.3e-07,
        "meta_mean_motion_ddot": 0,
        "tle_line1": "1 45027U 20005B   25354.26739307  .00000073  00000+0  00000+0 0  9999",
        "tle_line2": "2 45027   0.0718  94.8547 0001305 192.1408 265.5721  1.00269751 22549"
      },
      "geometry": {
        "type": "Point",
        "coordinates": [
          19.700127802886193,
          -0.055332577137313016
        ]
      }
    },
    {
      "type": "Feature",
      "properties": {
        "norad_id": 49056,
        "name": "EUTELSAT QUANTUM",
        "group": "eutelsat",
        "lat": 0.02693702598499972,
        "lon": 60.21598041065479,
        "alt_km": 35796.906178550635,
        "timestamp": "2025-12-20T18:51:31.389297+00:00",
        "meta_object_name": "EUTELSAT QUANTUM",
        "meta_object_id": "2021-069B",
        "meta_epoch": "2025-12-20T13:27:29.799648",
        "meta_mean_motion": 1.0027209,
        "meta_eccentricity": 0.00033324,
        "meta_inclination": 0.0192,
        "meta_ra_of_asc_node": 34.4183,
        "meta_arg_of_pericenter": 245.1221,
        "meta_mean_anomaly": 59.4319,
        "meta_ephemeris_type": 0,
        "meta_classification_type": "U",
        "meta_norad_cat_id": 49056,
        "meta_element_set_no": 999,
        "meta_rev_at_epoch": 1613,
        "meta_bstar": 0,
        "meta_mean_motion_dot": 1.49e-06,
        "meta_mean_motion_ddot": 0,
        "tle_line1": "1 49056U 21069B   25354.56076157  .00000149  00000+0  00000+0 0  9990",
        "tle_line2": "2 49056   0.0192  34.4183 0003332 245.1221  59.4319  1.00272090 16132"
      },
      "geometry": {
        "type": "Point",
        "coordinates": [
          60.21598041065479,
          0.02693702598499972
        ]
      }
    },
    {
      "type": "Feature",
      "properties": {
        "norad_id": 53765,
        "name": "EUTELSAT KONNECT VHTS",
        "group": "eutelsat",
        "lat": -0.05080847674794062,
        "lon": 15.274954774258692,
        "alt_km": 35792.22590897028,
        "timestamp": "2025-12-20T18:51:31.389309+00:00",
        "meta_object_name": "EUTELSAT KONNECT VHTS",
        "meta_object_id": "2022-110A",
        "meta_epoch": "2025-12-20T03:48:38.814048",
        "meta_mean_motion": 1.00276689,
        "meta_eccentricity": 0.00023926,
        "meta_inclination": 0.0642,
        "meta_ra_of_asc_node": 98.8087,
        "meta_arg_of_pericenter": 137.8855,
        "meta_mean_anomaly": 272.2232,
        "meta_ephemeris_type": 0,
        "meta_classification_type": "U",
        "meta_norad_cat_id": 53765,
        "meta_element_set_no": 999,
        "meta_rev_at_epoch": 503,
        "meta_bstar": 0,
        "meta_mean_motion_dot": 4.2e-07,
        "meta_mean_motion_ddot": 0,
        "tle_line1": "1 53765U 22110A   25354.15878257  .00000042  00000+0  00000+0 0  9998",
        "tle_line2": "2 53765   0.0642  98.8087 0002392 137.8855 272.2232  1.00276689  5030"
      },
      "geometry": {
        "type": "Point",
        "coordinates": [
          15.274954774258692,
          -0.05080847674794062
        ]
      }
    },
    {
      "type": "Feature",
      "properties": {
        "norad_id": 54048,
        "name": "EUTELSAT HOTBIRD 13F",
        "group": "eutelsat",
        "lat": 0.05685574431630529,
        "lon": 25.490783681519183,
        "alt_km": 35776.57020706908,
        "timestamp": "2025-12-20T18:51:31.389320+00:00",
        "meta_object_name": "EUTELSAT HOTBIRD 13F",
        "meta_object_id": "2022-134A",
        "meta_epoch": "2025-12-20T04:43:57.443232",
        "meta_mean_motion": 1.00272198,
        "meta_eccentricity": 0.0002383,
        "meta_inclination": 0.0482,
        "meta_ra_of_asc_node": 295.6006,
        "meta_arg_of_pericenter": 68.8406,
        "meta_mean_anomaly": 168.5765,
        "meta_ephemeris_type": 0,
        "meta_classification_type": "U",
        "meta_norad_cat_id": 54048,
        "meta_element_set_no": 999,
        "meta_rev_at_epoch": 1158,
        "meta_bstar": 0,
        "meta_mean_motion_dot": 1.11e-06,
        "meta_mean_motion_ddot": 0,
        "tle_line1": "1 54048U 22134A   25354.19719263  .00000111  00000+0  00000+0 0  9991",
        "tle_line2": "2 54048   0.0482 295.6006 0002383  68.8406 168.5765  1.00272198 11586"
      },
      "geometry": {
        "type": "Point",
        "coordinates": [
          25.490783681519183,
          0.05685574431630529
        ]
      }
    },
    {
      "type": "Feature",
      "properties": {
        "norad_id": 54225,
        "name": "EUTELSAT HOTBIRD 13G",
        "group": "eutelsat",
        "lat": 0.03065283524400885,
        "lon": 25.46918861945695,
        "alt_km": 35792.207779295815,
        "timestamp": "2025-12-20T18:51:31.389349+00:00",
        "meta_object_name": "EUTELSAT HOTBIRD 13G",
        "meta_object_id": "2022-146A",
        "meta_epoch": "2025-12-19T18:27:37.056960",
        "meta_mean_motion": 1.0027241,
        "meta_eccentricity": 0.00017892,
        "meta_inclination": 0.0515,
        "meta_ra_of_asc_node": 225.8744,
        "meta_arg_of_pericenter": 308.1908,
        "meta_mean_anomaly": 204.4423,
        "meta_ephemeris_type": 0,
        "meta_classification_type": "U",
        "meta_norad_cat_id": 54225,
        "meta_element_set_no": 999,
        "meta_rev_at_epoch": 566,
        "meta_bstar": 0,
        "meta_mean_motion_dot": 1.12e-06,
        "meta_mean_motion_ddot": 0,
        "tle_line1": "1 54225U 22146A   25353.76917890  .00000112  00000+0  00000+0 0  9990",
        "tle_line2": "2 54225   0.0515 225.8744 0001789 308.1908 204.4423  1.00272410  5660"
      },
      "geometry": {
        "type": "Point",
        "coordinates": [
          25.46918861945695,
          0.03065283524400885
        ]
      }
    }
  ]
}